{
"type": "FeatureCollection",
"name": "places",
"crs": { "type": "name", "properties": { "name": "urn:ogc:def:crs:EPSG::4269" } },
"features": [
{ "type": "Feature", "id": 0, "properties": { "id": 1, "place_name": "Saint Petersburg", "end_id": 1 }, "geometry": { "type": "Point", "coordinates": [ 30.453327178955082, 59.95188903808593 ] } },
{ "type": "Feature", "id": 1, "properties": { "id": 2, "place_name": "Vilnius", "end_id": 2 }, "geometry": { "type": "Point", "coordinates": [ 25.275966644287109, 54.688568115234375 ] } },
{ "type": "Feature", "id": 2, "properties": { "id": 3, "place_name": "Minsk", "end_id": 3 }, "geometry": { "type": "Point", "coordinates": [ 27.575567245483398, 53.899936676025391 ] } },
{ "type": "Feature", "id": 3, "properties": { "id": 4, "place_name": "Dublin", "end_id": 4 }, "geometry": { "type": "Point", "coordinates": [ -6.257346630096436, 53.341560363769531 ] } },
{ "type": "Feature", "id": 4, "properties": { "id": 5, "place_name": "Berlin", "end_id": 5 }, "geometry": { "type": "Point", "coordinates": [ 13.327572822570801, 52.516273498535156 ] } },
{ "type": "Feature", "id": 5, "properties": { "id": 6, "place_name": "Amsterdam", "end_id": 6 }, "geometry": { "type": "Point", "coordinates": [ 4.894833087921144, 52.373043060302734 ] } },
{ "type": "Feature", "id": 6, "properties": { "id": 7, "place_name": "Warsaw", "end_id": 7 }, "geometry": { "type": "Point", "coordinates": [ 21.01187896728516, 52.244945526123047 ] } },
{ "type": "Feature", "id": 7, "properties": { "id": 8, "place_name": "London", "end_id": 8 }, "geometry": { "type": "Point", "coordinates": [ -0.177998125553131, 51.487911224365234 ] } },
{ "type": "Feature", "id": 8, "properties": { "id": 9, "place_name": "Essen", "end_id": 9 }, "geometry": { "type": "Point", "coordinates": [ 7.122435092926025, 51.354042053222663 ] } },
{ "type": "Feature", "id": 9, "properties": { "id": 10, "place_name": "Bruxelles", "end_id": 10 }, "geometry": { "type": "Point", "coordinates": [ 4.367612361907959, 50.837047576904297 ] } },
{ "type": "Feature", "id": 10, "properties": { "id": 11, "place_name": "Kiev", "end_id": 11 }, "geometry": { "type": "Point", "coordinates": [ 30.502111434936527, 50.448158264160156 ] } },
{ "type": "Feature", "id": 11, "properties": { "id": 12, "place_name": "Praha", "end_id": 12 }, "geometry": { "type": "Point", "coordinates": [ 14.456520080566408, 50.10589599609375 ] } },
{ "type": "Feature", "id": 12, "properties": { "id": 13, "place_name": "Paris", "end_id": 13 }, "geometry": { "type": "Point", "coordinates": [ 2.432832717895508, 48.881553649902344 ] } },
{ "type": "Feature", "id": 13, "properties": { "id": 14, "place_name": "Vienna", "end_id": 14 }, "geometry": { "type": "Point", "coordinates": [ 16.320985794067383, 48.202117919921875 ] } },
{ "type": "Feature", "id": 14, "properties": { "id": 15, "place_name": "Ulaanbaatar", "end_id": 15 }, "geometry": { "type": "Point", "coordinates": [ 106.912353515625, 47.928596496582031 ] } },
{ "type": "Feature", "id": 15, "properties": { "id": 16, "place_name": "Budapest", "end_id": 16 }, "geometry": { "type": "Point", "coordinates": [ 19.094249725341797, 47.514625549316406 ] } },
{ "type": "Feature", "id": 16, "properties": { "id": 17, "place_name": "Bern", "end_id": 17 }, "geometry": { "type": "Point", "coordinates": [ 7.445736408233643, 46.948207855224609 ] } },
{ "type": "Feature", "id": 17, "properties": { "id": 18, "place_name": "Milano", "end_id": 18 }, "geometry": { "type": "Point", "coordinates": [ 9.190464019775391, 45.473381042480469 ] } },
{ "type": "Feature", "id": 18, "properties": { "id": 19, "place_name": "Ottawa", "end_id": 19 }, "geometry": { "type": "Point", "coordinates": [ -75.650749206542969, 45.374217987060554 ] } },
{ "type": "Feature", "id": 19, "properties": { "id": 20, "place_name": "Beograd", "end_id": 20 }, "geometry": { "type": "Point", "coordinates": [ 20.412555694580078, 44.7996826171875 ] } },
{ "type": "Feature", "id": 20, "properties": { "id": 21, "place_name": "Bucuresti", "end_id": 21 }, "geometry": { "type": "Point", "coordinates": [ 26.122976303100586, 44.430484771728516 ] } },
{ "type": "Feature", "id": 21, "properties": { "id": 22, "place_name": "Toronto", "end_id": 22 }, "geometry": { "type": "Point", "coordinates": [ -79.412635803222656, 43.720767974853516 ] } },
{ "type": "Feature", "id": 22, "properties": { "id": 23, "place_name": "Almaty", "end_id": 23 }, "geometry": { "type": "Point", "coordinates": [ 76.912628173828125, 43.255062103271491 ] } },
{ "type": "Feature", "id": 23, "properties": { "id": 24, "place_name": "Sofiya", "end_id": 24 }, "geometry": { "type": "Point", "coordinates": [ 23.331871032714844, 42.707263946533203 ] } },
{ "type": "Feature", "id": 24, "properties": { "id": 25, "place_name": "Detroit", "end_id": 25 }, "geometry": { "type": "Point", "coordinates": [ -83.078926086425781, 42.394313812255859 ] } },
{ "type": "Feature", "id": 25, "properties": { "id": 26, "place_name": "Boston", "end_id": 26 }, "geometry": { "type": "Point", "coordinates": [ -71.102584838867188, 42.375297546386719 ] } },
{ "type": "Feature", "id": 26, "properties": { "id": 27, "place_name": "Chicago", "end_id": 27 }, "geometry": { "type": "Point", "coordinates": [ -87.641304016113281, 41.826545715332031 ] } },
{ "type": "Feature", "id": 27, "properties": { "id": 28, "place_name": "Shenyang", "end_id": 28 }, "geometry": { "type": "Point", "coordinates": [ 123.38305664062499, 41.802162170410156 ] } },
{ "type": "Feature", "id": 28, "properties": { "id": 29, "place_name": "T'Bilisi", "end_id": 29 }, "geometry": { "type": "Point", "coordinates": [ 44.783126831054695, 41.721809387207031 ] } },
{ "type": "Feature", "id": 29, "properties": { "id": 30, "place_name": "Tirane", "end_id": 30 }, "geometry": { "type": "Point", "coordinates": [ 19.831804275512695, 41.331653594970703 ] } },
{ "type": "Feature", "id": 30, "properties": { "id": 31, "place_name": "Istanbul", "end_id": 31 }, "geometry": { "type": "Point", "coordinates": [ 29.006069183349613, 41.065956115722656 ] } },
{ "type": "Feature", "id": 31, "properties": { "id": 32, "place_name": "Madrid", "end_id": 32 }, "geometry": { "type": "Point", "coordinates": [ -3.690969467163086, 40.442218780517578 ] } },
{ "type": "Feature", "id": 32, "properties": { "id": 33, "place_name": "Baku", "end_id": 33 }, "geometry": { "type": "Point", "coordinates": [ 49.816238403320312, 40.324298858642578 ] } },
{ "type": "Feature", "id": 33, "properties": { "id": 34, "place_name": "Yerevan", "end_id": 34 }, "geometry": { "type": "Point", "coordinates": [ 44.532669067382813, 40.208023071289063 ] } },
{ "type": "Feature", "id": 34, "properties": { "id": 35, "place_name": "Ankara", "end_id": 35 }, "geometry": { "type": "Point", "coordinates": [ 32.853271484375, 39.929328918457031 ] } },
{ "type": "Feature", "id": 35, "properties": { "id": 36, "place_name": "Philadelphia", "end_id": 36 }, "geometry": { "type": "Point", "coordinates": [ -75.218223571777344, 39.92755126953125 ] } },
{ "type": "Feature", "id": 36, "properties": { "id": 37, "place_name": "Beijing", "end_id": 37 }, "geometry": { "type": "Point", "coordinates": [ 116.38803863525391, 39.906192779541016 ] } },
{ "type": "Feature", "id": 37, "properties": { "id": 38, "place_name": "Tianjin", "end_id": 38 }, "geometry": { "type": "Point", "coordinates": [ 117.18522644042969, 39.128414154052734 ] } },
{ "type": "Feature", "id": 38, "properties": { "id": 39, "place_name": "Pyongyang", "end_id": 39 }, "geometry": { "type": "Point", "coordinates": [ 125.75751495361327, 39.028514862060547 ] } },
{ "type": "Feature", "id": 39, "properties": { "id": 40, "place_name": "Washington D.C.", "end_id": 40 }, "geometry": { "type": "Point", "coordinates": [ -76.953834533691406, 38.890911102294922 ] } },
{ "type": "Feature", "id": 40, "properties": { "id": 41, "place_name": "Ashkhabad", "end_id": 41 }, "geometry": { "type": "Point", "coordinates": [ 58.390132904052741, 37.950420379638672 ] } },
{ "type": "Feature", "id": 41, "properties": { "id": 42, "place_name": "Seoul", "end_id": 42 }, "geometry": { "type": "Point", "coordinates": [ 126.9352493286133, 37.542350769042969 ] } },
{ "type": "Feature", "id": 42, "properties": { "id": 43, "place_name": "Tunis", "end_id": 43 }, "geometry": { "type": "Point", "coordinates": [ 10.165960311889648, 36.818813323974609 ] } },
{ "type": "Feature", "id": 43, "properties": { "id": 44, "place_name": "Tehran", "end_id": 44 }, "geometry": { "type": "Point", "coordinates": [ 51.447650909423828, 35.77447509765625 ] } },
{ "type": "Feature", "id": 44, "properties": { "id": 45, "place_name": "Tokyo", "end_id": 45 }, "geometry": { "type": "Point", "coordinates": [ 139.80918884277344, 35.683055877685547 ] } },
{ "type": "Feature", "id": 45, "properties": { "id": 46, "place_name": "Pusan", "end_id": 46 }, "geometry": { "type": "Point", "coordinates": [ 129.0546875, 35.157867431640632 ] } },
{ "type": "Feature", "id": 46, "properties": { "id": 47, "place_name": "Nagoya", "end_id": 47 }, "geometry": { "type": "Point", "coordinates": [ 136.92059326171875, 35.154922485351562 ] } },
{ "type": "Feature", "id": 47, "properties": { "id": 48, "place_name": "Osaka", "end_id": 48 }, "geometry": { "type": "Point", "coordinates": [ 135.51911926269531, 34.635528564453125 ] } },
{ "type": "Feature", "id": 48, "properties": { "id": 49, "place_name": "Kabul", "end_id": 49 }, "geometry": { "type": "Point", "coordinates": [ 69.136756896972656, 34.530906677246094 ] } },
{ "type": "Feature", "id": 49, "properties": { "id": 50, "place_name": "Islamabad", "end_id": 50 }, "geometry": { "type": "Point", "coordinates": [ 73.060546875, 33.718151092529297 ] } },
{ "type": "Feature", "id": 50, "properties": { "id": 51, "place_name": "Damascus", "end_id": 51 }, "geometry": { "type": "Point", "coordinates": [ 36.313453674316413, 33.51930236816407 ] } },
{ "type": "Feature", "id": 51, "properties": { "id": 52, "place_name": "Baghdad", "end_id": 52 }, "geometry": { "type": "Point", "coordinates": [ 44.397834777832038, 33.334037780761719 ] } },
{ "type": "Feature", "id": 52, "properties": { "id": 53, "place_name": "Amman", "end_id": 53 }, "geometry": { "type": "Point", "coordinates": [ 35.932907104492188, 31.949382781982422 ] } },
{ "type": "Feature", "id": 53, "properties": { "id": 54, "place_name": "Lahore", "end_id": 54 }, "geometry": { "type": "Point", "coordinates": [ 74.340675354003906, 31.545053482055664 ] } },
{ "type": "Feature", "id": 54, "properties": { "id": 55, "place_name": "Shanghai", "end_id": 55 }, "geometry": { "type": "Point", "coordinates": [ 121.47265625000001, 31.247869491577148 ] } },
{ "type": "Feature", "id": 55, "properties": { "id": 56, "place_name": "Wuhan", "end_id": 56 }, "geometry": { "type": "Point", "coordinates": [ 114.27922058105469, 30.572498321533207 ] } },
{ "type": "Feature", "id": 56, "properties": { "id": 57, "place_name": "Cairo", "end_id": 57 }, "geometry": { "type": "Point", "coordinates": [ 31.250797271728519, 30.077911376953129 ] } },
{ "type": "Feature", "id": 57, "properties": { "id": 58, "place_name": "New Delhi", "end_id": 58 }, "geometry": { "type": "Point", "coordinates": [ 77.216751098632812, 28.5687255859375 ] } },
{ "type": "Feature", "id": 58, "properties": { "id": 59, "place_name": "Delhi", "end_id": 59 }, "geometry": { "type": "Point", "coordinates": [ 77.224372863769531, 28.526458740234375 ] } },
{ "type": "Feature", "id": 59, "properties": { "id": 60, "place_name": "Kathmandu", "end_id": 60 }, "geometry": { "type": "Point", "coordinates": [ 85.312950134277344, 27.712017059326172 ] } },
{ "type": "Feature", "id": 60, "properties": { "id": 61, "place_name": "Thimbu", "end_id": 61 }, "geometry": { "type": "Point", "coordinates": [ 89.667327880859375, 27.442605972290043 ] } },
{ "type": "Feature", "id": 61, "properties": { "id": 62, "place_name": "Doha", "end_id": 62 }, "geometry": { "type": "Point", "coordinates": [ 51.497234344482422, 25.203641891479492 ] } },
{ "type": "Feature", "id": 62, "properties": { "id": 63, "place_name": "Taipei", "end_id": 63 }, "geometry": { "type": "Point", "coordinates": [ 121.50672912597658, 25.035091400146488 ] } },
{ "type": "Feature", "id": 63, "properties": { "id": 64, "place_name": "Dhaka", "end_id": 64 }, "geometry": { "type": "Point", "coordinates": [ 90.407142639160156, 23.709918975830078 ] } },
{ "type": "Feature", "id": 64, "properties": { "id": 65, "place_name": "Guangzhou", "end_id": 65 }, "geometry": { "type": "Point", "coordinates": [ 113.29360961914062, 23.096195220947266 ] } },
{ "type": "Feature", "id": 65, "properties": { "id": 66, "place_name": "Calcutta", "end_id": 66 }, "geometry": { "type": "Point", "coordinates": [ 88.334220886230469, 22.543537139892578 ] } },
{ "type": "Feature", "id": 66, "properties": { "id": 67, "place_name": "Hanoi", "end_id": 67 }, "geometry": { "type": "Point", "coordinates": [ 105.81990814208984, 21.031948089599609 ] } },
{ "type": "Feature", "id": 67, "properties": { "id": 68, "place_name": "Mexico City", "end_id": 68 }, "geometry": { "type": "Point", "coordinates": [ -99.127571105957031, 19.427045822143555 ] } },
{ "type": "Feature", "id": 68, "properties": { "id": 69, "place_name": "Port-au-Prince", "end_id": 69 }, "geometry": { "type": "Point", "coordinates": [ -72.343109130859375, 18.526617050170898 ] } },
{ "type": "Feature", "id": 69, "properties": { "id": 70, "place_name": "San Juan", "end_id": 70 }, "geometry": { "type": "Point", "coordinates": [ -66.081756591796875, 18.400615692138672 ] } },
{ "type": "Feature", "id": 70, "properties": { "id": 71, "place_name": "Kingston", "end_id": 71 }, "geometry": { "type": "Point", "coordinates": [ -76.79730224609375, 18.015712738037109 ] } },
{ "type": "Feature", "id": 71, "properties": { "id": 72, "place_name": "Rangoon", "end_id": 72 }, "geometry": { "type": "Point", "coordinates": [ 96.124893188476563, 16.872222900390625 ] } },
{ "type": "Feature", "id": 72, "properties": { "id": 73, "place_name": "Sanaa", "end_id": 73 }, "geometry": { "type": "Point", "coordinates": [ 44.209503173828125, 15.361444473266603 ] } },
{ "type": "Feature", "id": 73, "properties": { "id": 74, "place_name": "Guatemala", "end_id": 74 }, "geometry": { "type": "Point", "coordinates": [ -90.52490234375, 14.618007659912109 ] } },
{ "type": "Feature", "id": 74, "properties": { "id": 75, "place_name": "Tegucigalpa", "end_id": 75 }, "geometry": { "type": "Point", "coordinates": [ -87.203094482421875, 14.099050521850586 ] } },
{ "type": "Feature", "id": 75, "properties": { "id": 76, "place_name": "Bangkok", "end_id": 76 }, "geometry": { "type": "Point", "coordinates": [ 100.55266571044922, 13.745571136474609 ] } },
{ "type": "Feature", "id": 76, "properties": { "id": 77, "place_name": "San Salvador", "end_id": 77 }, "geometry": { "type": "Point", "coordinates": [ -89.200233459472656, 13.701412200927734 ] } },
{ "type": "Feature", "id": 77, "properties": { "id": 78, "place_name": "Niamey", "end_id": 78 }, "geometry": { "type": "Point", "coordinates": [ 2.083449840545654, 13.604543685913086 ] } },
{ "type": "Feature", "id": 78, "properties": { "id": 79, "place_name": "Madras", "end_id": 79 }, "geometry": { "type": "Point", "coordinates": [ 80.247825622558608, 13.061503410339355 ] } },
{ "type": "Feature", "id": 79, "properties": { "id": 80, "place_name": "Bamako", "end_id": 80 }, "geometry": { "type": "Point", "coordinates": [ -7.986481666564941, 12.652950286865234 ] } },
{ "type": "Feature", "id": 80, "properties": { "id": 81, "place_name": "Managua", "end_id": 81 }, "geometry": { "type": "Point", "coordinates": [ -86.273033142089844, 12.151473045349121 ] } },
{ "type": "Feature", "id": 81, "properties": { "id": 82, "place_name": "Phnom Penh", "end_id": 82 }, "geometry": { "type": "Point", "coordinates": [ 104.91319274902344, 11.564736366271973 ] } },
{ "type": "Feature", "id": 82, "properties": { "id": 83, "place_name": "Ho Chi Minh City", "end_id": 83 }, "geometry": { "type": "Point", "coordinates": [ 106.66245269775391, 10.759181976318359 ] } },
{ "type": "Feature", "id": 83, "properties": { "id": 84, "place_name": "Caracas", "end_id": 84 }, "geometry": { "type": "Point", "coordinates": [ -66.898284912109375, 10.496048927307129 ] } },
{ "type": "Feature", "id": 84, "properties": { "id": 85, "place_name": "San Jose", "end_id": 85 }, "geometry": { "type": "Point", "coordinates": [ -84.07861328125, 9.930476188659668 ] } },
{ "type": "Feature", "id": 85, "properties": { "id": 86, "place_name": "Accra", "end_id": 86 }, "geometry": { "type": "Point", "coordinates": [ -0.200923636555672, 5.558562755584717 ] } },
{ "type": "Feature", "id": 86, "properties": { "id": 87, "place_name": "Abidjan", "end_id": 87 }, "geometry": { "type": "Point", "coordinates": [ -4.021886825561523, 5.324857234954834 ] } },
{ "type": "Feature", "id": 87, "properties": { "id": 88, "place_name": "Bogota", "end_id": 88 }, "geometry": { "type": "Point", "coordinates": [ -74.080513000488281, 4.63021993637085 ] } },
{ "type": "Feature", "id": 88, "properties": { "id": 89, "place_name": "Bangui", "end_id": 89 }, "geometry": { "type": "Point", "coordinates": [ 18.562341690063477, 4.365856170654297 ] } },
{ "type": "Feature", "id": 89, "properties": { "id": 90, "place_name": "Yaounde", "end_id": 90 }, "geometry": { "type": "Point", "coordinates": [ 11.513641357421875, 3.86512303352356 ] } },
{ "type": "Feature", "id": 90, "properties": { "id": 91, "place_name": "Kuala Lumpur", "end_id": 91 }, "geometry": { "type": "Point", "coordinates": [ 101.70767211914062, 3.150210380554199 ] } },
{ "type": "Feature", "id": 91, "properties": { "id": 92, "place_name": "Muqdisho", "end_id": 92 }, "geometry": { "type": "Point", "coordinates": [ 45.344142913818359, 2.04117751121521 ] } },
{ "type": "Feature", "id": 92, "properties": { "id": 93, "place_name": "Quito", "end_id": 93 }, "geometry": { "type": "Point", "coordinates": [ -78.524284362792969, -0.229498133063316 ] } },
{ "type": "Feature", "id": 93, "properties": { "id": 94, "place_name": "Brazzaville", "end_id": 94 }, "geometry": { "type": "Point", "coordinates": [ 15.285148620605469, -4.285186767578125 ] } },
{ "type": "Feature", "id": 94, "properties": { "id": 95, "place_name": "Dar es Salaam", "end_id": 95 }, "geometry": { "type": "Point", "coordinates": [ 39.253349304199219, -6.81735897064209 ] } },
{ "type": "Feature", "id": 95, "properties": { "id": 96, "place_name": "Brasilia", "end_id": 96 }, "geometry": { "type": "Point", "coordinates": [ -47.897747039794922, -15.792109489440916 ] } },
{ "type": "Feature", "id": 96, "properties": { "id": 97, "place_name": "La Paz", "end_id": 97 }, "geometry": { "type": "Point", "coordinates": [ -68.146247863769531, -16.499006271362308 ] } },
{ "type": "Feature", "id": 97, "properties": { "id": 98, "place_name": "Rio de Janeiro", "end_id": 98 }, "geometry": { "type": "Point", "coordinates": [ -43.455177307128906, -22.721572875976563 ] } },
{ "type": "Feature", "id": 98, "properties": { "id": 99, "place_name": "Sao Paulo", "end_id": 99 }, "geometry": { "type": "Point", "coordinates": [ -46.622898101806641, -23.581304550170898 ] } },
{ "type": "Feature", "id": 99, "properties": { "id": 100, "place_name": "Gaborone", "end_id": 100 }, "geometry": { "type": "Point", "coordinates": [ 25.794801712036133, -24.661441802978516 ] } },
{ "type": "Feature", "id": 100, "properties": { "id": 101, "place_name": "Pretoria", "end_id": 101 }, "geometry": { "type": "Point", "coordinates": [ 28.218372344970703, -25.731346130371094 ] } },
{ "type": "Feature", "id": 101, "properties": { "id": 102, "place_name": "Maputo", "end_id": 102 }, "geometry": { "type": "Point", "coordinates": [ 32.573692321777344, -25.962154388427734 ] } },
{ "type": "Feature", "id": 102, "properties": { "id": 103, "place_name": "Johannesburg", "end_id": 103 }, "geometry": { "type": "Point", "coordinates": [ 28.004308700561523, -26.178956985473633 ] } },
{ "type": "Feature", "id": 103, "properties": { "id": 104, "place_name": "Santiago", "end_id": 104 }, "geometry": { "type": "Point", "coordinates": [ -70.647514343261719, -33.475025177001953 ] } },
{ "type": "Feature", "id": 104, "properties": { "id": 105, "place_name": "Sydney", "end_id": 105 }, "geometry": { "type": "Point", "coordinates": [ 151.0281982421875, -33.889774322509766 ] } },
{ "type": "Feature", "id": 105, "properties": { "id": 106, "place_name": "Buenos Aires", "end_id": 106 }, "geometry": { "type": "Point", "coordinates": [ -58.409591674804688, -34.665401458740234 ] } },
{ "type": "Feature", "id": 106, "properties": { "id": 107, "place_name": "Canberra", "end_id": 107 }, "geometry": { "type": "Point", "coordinates": [ 149.0416259765625, -35.349925994873047 ] } },
{ "type": "Feature", "id": 107, "properties": { "id": 108, "place_name": "Helsinki", "end_id": 108 }, "geometry": { "type": "Point", "coordinates": [ 24.976699829101566, 60.196422576904297 ] } },
{ "type": "Feature", "id": 108, "properties": { "id": 109, "place_name": "N'Djamena", "end_id": 109 }, "geometry": { "type": "Point", "coordinates": [ 15.240823745727539, 12.10413932800293 ] } },
{ "type": "Feature", "id": 109, "properties": { "id": 110, "place_name": "Tripoli", "end_id": 110 }, "geometry": { "type": "Point", "coordinates": [ 13.211822509765625, 32.751617431640625 ] } },
{ "type": "Feature", "id": 110, "properties": { "id": 111, "place_name": "Kinshasa", "end_id": 111 }, "geometry": { "type": "Point", "coordinates": [ 15.469293594360353, -4.388674736022949 ] } },
{ "type": "Feature", "id": 111, "properties": { "id": 112, "place_name": "Jakarta", "end_id": 112 }, "geometry": { "type": "Point", "coordinates": [ 106.76246643066406, -6.293904304504395 ] } },
{ "type": "Feature", "id": 112, "properties": { "id": 113, "place_name": "Vientiane", "end_id": 113 }, "geometry": { "type": "Point", "coordinates": [ 102.68023681640625, 18.001731872558594 ] } },
{ "type": "Feature", "id": 113, "properties": { "id": 114, "place_name": "Zagreb", "end_id": 114 }, "geometry": { "type": "Point", "coordinates": [ 15.964385986328127, 45.807075500488281 ] } },
{ "type": "Feature", "id": 114, "properties": { "id": 115, "place_name": "Bujumbura", "end_id": 115 }, "geometry": { "type": "Point", "coordinates": [ 29.533586502075195, -3.269083738327026 ] } },
{ "type": "Feature", "id": 115, "properties": { "id": 116, "place_name": "Nicosia", "end_id": 116 }, "geometry": { "type": "Point", "coordinates": [ 33.385162353515625, 35.165069580078125 ] } },
{ "type": "Feature", "id": 116, "properties": { "id": 117, "place_name": "Kigali", "end_id": 117 }, "geometry": { "type": "Point", "coordinates": [ 29.991485595703125, -2.117935180664063 ] } },
{ "type": "Feature", "id": 117, "properties": { "id": 118, "place_name": "Ljubljana", "end_id": 118 }, "geometry": { "type": "Point", "coordinates": [ 14.639612197875978, 46.068302154541016 ] } },
{ "type": "Feature", "id": 118, "properties": { "id": 119, "place_name": "Maseru", "end_id": 119 }, "geometry": { "type": "Point", "coordinates": [ 27.890388488769535, -29.256710052490231 ] } },
{ "type": "Feature", "id": 119, "properties": { "id": 120, "place_name": "Luxembourg", "end_id": 120 }, "geometry": { "type": "Point", "coordinates": [ 6.273255825042725, 49.740406036376953 ] } },
{ "type": "Feature", "id": 120, "properties": { "id": 121, "place_name": "Bratislava", "end_id": 121 }, "geometry": { "type": "Point", "coordinates": [ 17.269805908203129, 48.274509429931641 ] } },
{ "type": "Feature", "id": 121, "properties": { "id": 122, "place_name": "Porto Novo", "end_id": 122 }, "geometry": { "type": "Point", "coordinates": [ 2.632502794265747, 6.601096153259277 ] } },
{ "type": "Feature", "id": 122, "properties": { "id": 123, "place_name": "Alexandria", "end_id": 123 }, "geometry": { "type": "Point", "coordinates": [ 29.977809906005859, 31.074604034423832 ] } },
{ "type": "Feature", "id": 123, "properties": { "id": 124, "place_name": "Bombay", "end_id": 124 }, "geometry": { "type": "Point", "coordinates": [ 73.172348022460938, 19.045347213745117 ] } },
{ "type": "Feature", "id": 124, "properties": { "id": 125, "place_name": "Algiers", "end_id": 125 }, "geometry": { "type": "Point", "coordinates": [ 2.993693113327026, 36.596492767333984 ] } },
{ "type": "Feature", "id": 125, "properties": { "id": 126, "place_name": "Tallinn", "end_id": 126 }, "geometry": { "type": "Point", "coordinates": [ 24.752056121826172, 59.277572631835938 ] } },
{ "type": "Feature", "id": 126, "properties": { "id": 127, "place_name": "Santo Domingo", "end_id": 127 }, "geometry": { "type": "Point", "coordinates": [ -69.910491943359375, 18.499729156494141 ] } },
{ "type": "Feature", "id": 127, "properties": { "id": 128, "place_name": "Bandar Seri Begawan", "end_id": 128 }, "geometry": { "type": "Point", "coordinates": [ 114.96700286865233, 4.933000087738038 ] } },
{ "type": "Feature", "id": 128, "properties": { "id": 129, "place_name": "Banjul", "end_id": 129 }, "geometry": { "type": "Point", "coordinates": [ -16.49461555480957, 13.445272445678711 ] } },
{ "type": "Feature", "id": 129, "properties": { "id": 130, "place_name": "Port of Spain", "end_id": 130 }, "geometry": { "type": "Point", "coordinates": [ -61.490062713623047, 10.639734268188477 ] } },
{ "type": "Feature", "id": 130, "properties": { "id": 131, "place_name": "Djibouti", "end_id": 131 }, "geometry": { "type": "Point", "coordinates": [ 43.099998474121094, 11.5 ] } },
{ "type": "Feature", "id": 131, "properties": { "id": 132, "place_name": "Godthab", "end_id": 132 }, "geometry": { "type": "Point", "coordinates": [ -51.580001831054695, 64.271186828613281 ] } },
{ "type": "Feature", "id": 132, "properties": { "id": 133, "place_name": "Mbabne", "end_id": 133 }, "geometry": { "type": "Point", "coordinates": [ 31.191297531127933, -26.303380966186523 ] } },
{ "type": "Feature", "id": 133, "properties": { "id": 134, "place_name": "Podgorica", "end_id": 134 }, "geometry": { "type": "Point", "coordinates": [ 19.399999618530273, 42.5 ] } },
{ "type": "Feature", "id": 134, "properties": { "id": 135, "place_name": "Sarajevo", "end_id": 135 }, "geometry": { "type": "Point", "coordinates": [ 18.430000305175781, 43.869998931884766 ] } },
{ "type": "Feature", "id": 135, "properties": { "id": 136, "place_name": "Skopje", "end_id": 136 }, "geometry": { "type": "Point", "coordinates": [ 21.530000686645508, 42.0 ] } },
{ "type": "Feature", "id": 136, "properties": { "id": 137, "place_name": "Adis Abeba", "end_id": 137 }, "geometry": { "type": "Point", "coordinates": [ 38.700000762939453, 9.029999732971191 ] } },
{ "type": "Feature", "id": 137, "properties": { "id": 138, "place_name": "Al Kuwayt", "end_id": 138 }, "geometry": { "type": "Point", "coordinates": [ 48.002777099609375, 29.194990158081058 ] } },
{ "type": "Feature", "id": 138, "properties": { "id": 139, "place_name": "Antananarivo", "end_id": 139 }, "geometry": { "type": "Point", "coordinates": [ 47.5, -18.870000839233398 ] } },
{ "type": "Feature", "id": 139, "properties": { "id": 140, "place_name": "Ar Riyad", "end_id": 140 }, "geometry": { "type": "Point", "coordinates": [ 46.770000457763672, 24.649999618530273 ] } },
{ "type": "Feature", "id": 140, "properties": { "id": 141, "place_name": "Asmara", "end_id": 141 }, "geometry": { "type": "Point", "coordinates": [ 38.970001220703125, 15.329999923706055 ] } },
{ "type": "Feature", "id": 141, "properties": { "id": 142, "place_name": "Asuncion", "end_id": 142 }, "geometry": { "type": "Point", "coordinates": [ -57.66999816894532, -25.219999313354492 ] } },
{ "type": "Feature", "id": 142, "properties": { "id": 143, "place_name": "Athinai", "end_id": 143 }, "geometry": { "type": "Point", "coordinates": [ 23.654863357543949, 38.121601104736328 ] } },
{ "type": "Feature", "id": 143, "properties": { "id": 144, "place_name": "Barcelona", "end_id": 144 }, "geometry": { "type": "Point", "coordinates": [ 2.170000076293945, 41.529998779296882 ] } },
{ "type": "Feature", "id": 144, "properties": { "id": 145, "place_name": "Beirut", "end_id": 145 }, "geometry": { "type": "Point", "coordinates": [ 35.657943725585937, 33.779998779296875 ] } },
{ "type": "Feature", "id": 145, "properties": { "id": 146, "place_name": "Belmopan", "end_id": 146 }, "geometry": { "type": "Point", "coordinates": [ -88.800003051757813, 17.120000839233398 ] } },
{ "type": "Feature", "id": 146, "properties": { "id": 147, "place_name": "Bissau", "end_id": 147 }, "geometry": { "type": "Point", "coordinates": [ -15.649999618530273, 11.910989761352539 ] } },
{ "type": "Feature", "id": 147, "properties": { "id": 148, "place_name": "Cayenne", "end_id": 148 }, "geometry": { "type": "Point", "coordinates": [ -52.400001525878906, 4.920000076293945 ] } },
{ "type": "Feature", "id": 148, "properties": { "id": 149, "place_name": "Colombo", "end_id": 149 }, "geometry": { "type": "Point", "coordinates": [ 80.088333129882812, 7.019999980926514 ] } },
{ "type": "Feature", "id": 149, "properties": { "id": 150, "place_name": "Conakry", "end_id": 150 }, "geometry": { "type": "Point", "coordinates": [ -12.800000190734863, 9.520000457763674 ] } },
{ "type": "Feature", "id": 150, "properties": { "id": 151, "place_name": "Dakar", "end_id": 151 }, "geometry": { "type": "Point", "coordinates": [ -16.848094940185547, 14.630000114440918 ] } },
{ "type": "Feature", "id": 151, "properties": { "id": 152, "place_name": "Dushanfe", "end_id": 152 }, "geometry": { "type": "Point", "coordinates": [ 68.900001525878906, 38.630001068115234 ] } },
{ "type": "Feature", "id": 152, "properties": { "id": 153, "place_name": "Freetown", "end_id": 153 }, "geometry": { "type": "Point", "coordinates": [ -12.910276412963867, 8.382770538330078 ] } },
{ "type": "Feature", "id": 153, "properties": { "id": 154, "place_name": "Frunze", "end_id": 154 }, "geometry": { "type": "Point", "coordinates": [ 74.769996643066406, 42.880001068115241 ] } },
{ "type": "Feature", "id": 154, "properties": { "id": 155, "place_name": "Georgetown", "end_id": 155 }, "geometry": { "type": "Point", "coordinates": [ -58.169998168945313, 6.769999980926514 ] } },
{ "type": "Feature", "id": 155, "properties": { "id": 156, "place_name": "Harare", "end_id": 156 }, "geometry": { "type": "Point", "coordinates": [ 31.020000457763672, -17.829999923706055 ] } },
{ "type": "Feature", "id": 156, "properties": { "id": 157, "place_name": "Havana", "end_id": 157 }, "geometry": { "type": "Point", "coordinates": [ -82.416450500488281, 23.048952102661133 ] } },
{ "type": "Feature", "id": 157, "properties": { "id": 158, "place_name": "Kampala", "end_id": 158 }, "geometry": { "type": "Point", "coordinates": [ 32.580001831054687, 0.319999992847443 ] } },
{ "type": "Feature", "id": 158, "properties": { "id": 159, "place_name": "Karachi", "end_id": 159 }, "geometry": { "type": "Point", "coordinates": [ 67.029998779296875, 24.850000381469727 ] } },
{ "type": "Feature", "id": 159, "properties": { "id": 160, "place_name": "Khartoum", "end_id": 160 }, "geometry": { "type": "Point", "coordinates": [ 32.529998779296875, 15.550000190734865 ] } },
{ "type": "Feature", "id": 160, "properties": { "id": 161, "place_name": "Kishinev", "end_id": 161 }, "geometry": { "type": "Point", "coordinates": [ 28.829999923706058, 47.0 ] } },
{ "type": "Feature", "id": 161, "properties": { "id": 162, "place_name": "Kobenhavn", "end_id": 162 }, "geometry": { "type": "Point", "coordinates": [ 12.550000190734863, 55.720001220703125 ] } },
{ "type": "Feature", "id": 162, "properties": { "id": 163, "place_name": "Lagos", "end_id": 163 }, "geometry": { "type": "Point", "coordinates": [ 3.299999952316285, 6.449999809265137 ] } },
{ "type": "Feature", "id": 163, "properties": { "id": 164, "place_name": "Libreville", "end_id": 164 }, "geometry": { "type": "Point", "coordinates": [ 9.490456581115723, -0.504144549369812 ] } },
{ "type": "Feature", "id": 164, "properties": { "id": 165, "place_name": "Lilongwe", "end_id": 165 }, "geometry": { "type": "Point", "coordinates": [ 33.819999694824219, -13.920000076293945 ] } },
{ "type": "Feature", "id": 165, "properties": { "id": 166, "place_name": "Lima", "end_id": 166 }, "geometry": { "type": "Point", "coordinates": [ -76.823554992675781, -12.067996025085451 ] } },
{ "type": "Feature", "id": 166, "properties": { "id": 167, "place_name": "Lisboa", "end_id": 167 }, "geometry": { "type": "Point", "coordinates": [ -9.130000114440918, 38.729999542236328 ] } },
{ "type": "Feature", "id": 167, "properties": { "id": 168, "place_name": "Lome", "end_id": 168 }, "geometry": { "type": "Point", "coordinates": [ 1.350000023841858, 6.28000020980835 ] } },
{ "type": "Feature", "id": 168, "properties": { "id": 169, "place_name": "Los Angeles", "end_id": 169 }, "geometry": { "type": "Point", "coordinates": [ -118.25, 34.0 ] } },
{ "type": "Feature", "id": 169, "properties": { "id": 170, "place_name": "Luanda", "end_id": 170 }, "geometry": { "type": "Point", "coordinates": [ 13.46177864074707, -9.0 ] } },
{ "type": "Feature", "id": 170, "properties": { "id": 171, "place_name": "Lusaka", "end_id": 171 }, "geometry": { "type": "Point", "coordinates": [ 28.170000076293945, -15.430000305175781 ] } },
{ "type": "Feature", "id": 171, "properties": { "id": 172, "place_name": "Malabo", "end_id": 172 }, "geometry": { "type": "Point", "coordinates": [ 8.819999694824219, 3.644684791564941 ] } },
{ "type": "Feature", "id": 172, "properties": { "id": 173, "place_name": "Manila", "end_id": 173 }, "geometry": { "type": "Point", "coordinates": [ 121.1734085083008, 14.550000190734863 ] } },
{ "type": "Feature", "id": 173, "properties": { "id": 174, "place_name": "Masqat", "end_id": 174 }, "geometry": { "type": "Point", "coordinates": [ 58.627479553222649, 23.516639709472656 ] } },
{ "type": "Feature", "id": 174, "properties": { "id": 175, "place_name": "Monrovia", "end_id": 175 }, "geometry": { "type": "Point", "coordinates": [ -10.770000457763672, 6.517439365386963 ] } },
{ "type": "Feature", "id": 175, "properties": { "id": 176, "place_name": "Montevideo", "end_id": 176 }, "geometry": { "type": "Point", "coordinates": [ -56.169998168945312, -34.91999816894532 ] } },
{ "type": "Feature", "id": 176, "properties": { "id": 177, "place_name": "Moskva", "end_id": 177 }, "geometry": { "type": "Point", "coordinates": [ 37.700000762939453, 55.75 ] } },
{ "type": "Feature", "id": 177, "properties": { "id": 178, "place_name": "Nairobi", "end_id": 178 }, "geometry": { "type": "Point", "coordinates": [ 36.830001831054687, -1.169999957084656 ] } },
{ "type": "Feature", "id": 178, "properties": { "id": 179, "place_name": "New York", "end_id": 179 }, "geometry": { "type": "Point", "coordinates": [ -74.099998474121094, 40.75 ] } },
{ "type": "Feature", "id": 179, "properties": { "id": 180, "place_name": "Nouakchott", "end_id": 180 }, "geometry": { "type": "Point", "coordinates": [ -15.782860755920412, 18.030000686645508 ] } },
{ "type": "Feature", "id": 180, "properties": { "id": 181, "place_name": "Oslo", "end_id": 181 }, "geometry": { "type": "Point", "coordinates": [ 10.72000026702881, 59.930000305175788 ] } },
{ "type": "Feature", "id": 181, "properties": { "id": 182, "place_name": "Ouagadouou", "end_id": 182 }, "geometry": { "type": "Point", "coordinates": [ -1.669999957084656, 12.479999542236328 ] } },
{ "type": "Feature", "id": 182, "properties": { "id": 183, "place_name": "Port Moresby", "end_id": 183 }, "geometry": { "type": "Point", "coordinates": [ 147.41452026367187, -9.550000190734863 ] } },
{ "type": "Feature", "id": 183, "properties": { "id": 184, "place_name": "Rabat", "end_id": 184 }, "geometry": { "type": "Point", "coordinates": [ -6.748040676116943, 33.920196533203125 ] } },
{ "type": "Feature", "id": 184, "properties": { "id": 185, "place_name": "Reykjavik", "end_id": 185 }, "geometry": { "type": "Point", "coordinates": [ -21.336820602416992, 64.313262939453125 ] } },
{ "type": "Feature", "id": 185, "properties": { "id": 186, "place_name": "Riga", "end_id": 186 }, "geometry": { "type": "Point", "coordinates": [ 24.049999237060547, 56.880001068115234 ] } },
{ "type": "Feature", "id": 186, "properties": { "id": 187, "place_name": "Roma", "end_id": 187 }, "geometry": { "type": "Point", "coordinates": [ 12.520000457763672, 41.880001068115234 ] } },
{ "type": "Feature", "id": 187, "properties": { "id": 188, "place_name": "Stockholm", "end_id": 188 }, "geometry": { "type": "Point", "coordinates": [ 18.084268569946289, 59.244632720947273 ] } },
{ "type": "Feature", "id": 188, "properties": { "id": 189, "place_name": "Tel Aviv-Yafo", "end_id": 189 }, "geometry": { "type": "Point", "coordinates": [ 34.856834411621094, 31.91719818115234 ] } },
{ "type": "Feature", "id": 189, "properties": { "id": 190, "place_name": "Toshkent", "end_id": 190 }, "geometry": { "type": "Point", "coordinates": [ 69.349868774414062, 41.247932434082031 ] } },
{ "type": "Feature", "id": 190, "properties": { "id": 191, "place_name": "Windhoek", "end_id": 191 }, "geometry": { "type": "Point", "coordinates": [ 17.100000381469727, -22.569999694824219 ] } },
{ "type": "Feature", "id": 191, "properties": { "id": 192, "place_name": "Wellington", "end_id": 192 }, "geometry": { "type": "Point", "coordinates": [ 175.14494323730469, -41.210395812988281 ] } },
{ "type": "Feature", "id": 192, "properties": { "id": 193, "place_name": "Abu Zaby", "end_id": 193 }, "geometry": { "type": "Point", "coordinates": [ 54.619270324707031, 24.236007690429691 ] } },
{ "type": "Feature", "id": 193, "properties": { "id": 194, "place_name": "Hong Kong", "end_id": 194 }, "geometry": { "type": "Point", "coordinates": [ 114.14570617675781, 22.428405761718754 ] } },
{ "type": "Feature", "id": 194, "properties": { "id": 195, "place_name": "San Francisco", "end_id": 195 }, "geometry": { "type": "Point", "coordinates": [ -122.44165039062499, 37.727512359619141 ] } },
{ "type": "Feature", "id": 195, "properties": { "id": 196, "place_name": "Panama", "end_id": 196 }, "geometry": { "type": "Point", "coordinates": [ -79.408737182617188, 9.043188095092773 ] } },
{ "type": "Feature", "id": 196, "properties": { "id": 197, "place_name": "Paramaribo", "end_id": 197 }, "geometry": { "type": "Point", "coordinates": [ -55.186241149902344, 5.864362716674805 ] } },
{ "type": "Feature", "id": 197, "properties": { "id": 198, "place_name": "Singapore", "end_id": 198 }, "geometry": { "type": "Point", "coordinates": [ 103.84584045410156, 1.29259467124939 ] } },
{ "type": "Feature", "id": 198, "properties": { "id": 199, "place_name": "Dalap-Uliga-Dorrit", "end_id": 199 }, "geometry": { "type": "Point", "coordinates": [ 171.36766052246094, 7.120980262756348 ] } },
{ "type": "Feature", "id": 199, "properties": { "id": 200, "place_name": "Palikir", "end_id": 200 }, "geometry": { "type": "Point", "coordinates": [ 158.21670532226562, 6.966700077056885 ] } },
{ "type": "Feature", "id": 200, "properties": { "id": 201, "place_name": "Fongafale", "end_id": 201 }, "geometry": { "type": "Point", "coordinates": [ 179.22189331054687, -8.536502838134766 ] } },
{ "type": "Feature", "id": 201, "properties": { "id": 202, "place_name": "Vaduz", "end_id": 202 }, "geometry": { "type": "Point", "coordinates": [ 9.520999908447266, 47.143001556396484 ] } },
{ "type": "Feature", "id": 202, "properties": { "id": 203, "place_name": "San Marino", "end_id": 203 }, "geometry": { "type": "Point", "coordinates": [ 12.466667175292969, 43.916667938232422 ] } },
{ "type": "Feature", "id": 203, "properties": { "id": 204, "place_name": "Monaco", "end_id": 204 }, "geometry": { "type": "Point", "coordinates": [ 7.423999786376952, 43.744998931884766 ] } },
{ "type": "Feature", "id": 204, "properties": { "id": 205, "place_name": "Andorra", "end_id": 205 }, "geometry": { "type": "Point", "coordinates": [ 1.516667008399963, 42.5 ] } },
{ "type": "Feature", "id": 205, "properties": { "id": 206, "place_name": "Valletta", "end_id": 206 }, "geometry": { "type": "Point", "coordinates": [ 14.503999710083008, 35.912998199462891 ] } },
{ "type": "Feature", "id": 206, "properties": { "id": 207, "place_name": "Al-Manamah", "end_id": 207 }, "geometry": { "type": "Point", "coordinates": [ 50.583332061767578, 26.216667175292969 ] } },
{ "type": "Feature", "id": 207, "properties": { "id": 208, "place_name": "Nassau", "end_id": 208 }, "geometry": { "type": "Point", "coordinates": [ -77.339996337890625, 25.066999435424805 ] } },
{ "type": "Feature", "id": 208, "properties": { "id": 209, "place_name": "Saint John's", "end_id": 209 }, "geometry": { "type": "Point", "coordinates": [ -61.842170715332031, 17.124773025512695 ] } },
{ "type": "Feature", "id": 209, "properties": { "id": 210, "place_name": "Praia", "end_id": 210 }, "geometry": { "type": "Point", "coordinates": [ -23.520999908447266, 14.923000335693361 ] } },
{ "type": "Feature", "id": 210, "properties": { "id": 211, "place_name": "Castries", "end_id": 211 }, "geometry": { "type": "Point", "coordinates": [ -60.983001708984375, 14.0 ] } },
{ "type": "Feature", "id": 211, "properties": { "id": 212, "place_name": "Kingstown", "end_id": 212 }, "geometry": { "type": "Point", "coordinates": [ -61.229312896728509, 13.155361175537109 ] } },
{ "type": "Feature", "id": 212, "properties": { "id": 213, "place_name": "Bridgetown", "end_id": 213 }, "geometry": { "type": "Point", "coordinates": [ -59.615848541259759, 13.095870971679688 ] } },
{ "type": "Feature", "id": 213, "properties": { "id": 214, "place_name": "Saint George's", "end_id": 214 }, "geometry": { "type": "Point", "coordinates": [ -61.744998931884766, 12.064999580383301 ] } },
{ "type": "Feature", "id": 214, "properties": { "id": 215, "place_name": "Sao Tome", "end_id": 215 }, "geometry": { "type": "Point", "coordinates": [ 6.728000164031982, 0.337000012397766 ] } },
{ "type": "Feature", "id": 215, "properties": { "id": 216, "place_name": "Victoria", "end_id": 216 }, "geometry": { "type": "Point", "coordinates": [ 55.444999694824219, -4.617000102996826 ] } },
{ "type": "Feature", "id": 216, "properties": { "id": 217, "place_name": "Honiara", "end_id": 217 }, "geometry": { "type": "Point", "coordinates": [ 159.9517822265625, -9.433850288391113 ] } },
{ "type": "Feature", "id": 217, "properties": { "id": 218, "place_name": "Moroni", "end_id": 218 }, "geometry": { "type": "Point", "coordinates": [ 43.243000030517578, -11.699999809265137 ] } },
{ "type": "Feature", "id": 218, "properties": { "id": 219, "place_name": "Apia", "end_id": 219 }, "geometry": { "type": "Point", "coordinates": [ -171.73948669433594, -13.837029457092285 ] } },
{ "type": "Feature", "id": 219, "properties": { "id": 220, "place_name": "Port Vila", "end_id": 220 }, "geometry": { "type": "Point", "coordinates": [ 168.32099914550781, -17.739999771118164 ] } },
{ "type": "Feature", "id": 220, "properties": { "id": 221, "place_name": "Port Louis", "end_id": 221 }, "geometry": { "type": "Point", "coordinates": [ 57.495998382568366, -20.165000915527347 ] } },
{ "type": "Feature", "id": 221, "properties": { "id": 222, "place_name": "Yaren District", "end_id": 222 }, "geometry": { "type": "Point", "coordinates": [ 166.91670227050781, -0.516700029373169 ] } },
{ "type": "Feature", "id": 222, "properties": { "id": 223, "place_name": "Nuku' alofa", "end_id": 223 }, "geometry": { "type": "Point", "coordinates": [ -175.23658752441406, -21.179821014404297 ] } },
{ "type": "Feature", "id": 223, "properties": { "id": 224, "place_name": "Roseau", "end_id": 224 }, "geometry": { "type": "Point", "coordinates": [ -61.325492858886719, 15.354107856750488 ] } },
{ "type": "Feature", "id": 224, "properties": { "id": 225, "place_name": "Suva", "end_id": 225 }, "geometry": { "type": "Point", "coordinates": [ 178.37574768066406, -17.970014572143555 ] } },
{ "type": "Feature", "id": 225, "properties": { "id": 226, "place_name": "Tarawa", "end_id": 226 }, "geometry": { "type": "Point", "coordinates": [ 172.92913818359375, 1.342405915260315 ] } },
{ "type": "Feature", "id": 226, "properties": { "id": 227, "place_name": "Lake Winnipeg", "end_id": 227 }, "geometry": { "type": "Point", "coordinates": [ -97.955627441406264, 52.645469665527344 ] } },
{ "type": "Feature", "id": 227, "properties": { "id": 228, "place_name": "Reindeer Lake", "end_id": 228 }, "geometry": { "type": "Point", "coordinates": [ -102.42760467529297, 57.326778411865234 ] } },
{ "type": "Feature", "id": 228, "properties": { "id": 229, "place_name": "Great Bear Lake", "end_id": 229 }, "geometry": { "type": "Point", "coordinates": [ -120.80845642089844, 66.144119262695312 ] } },
{ "type": "Feature", "id": 229, "properties": { "id": 230, "place_name": "Great Slave Lake", "end_id": 230 }, "geometry": { "type": "Point", "coordinates": [ -113.76621246337891, 61.656776428222663 ] } },
{ "type": "Feature", "id": 230, "properties": { "id": 231, "place_name": "Lake Athabasca", "end_id": 231 }, "geometry": { "type": "Point", "coordinates": [ -109.39164733886719, 59.319705963134773 ] } },
{ "type": "Feature", "id": 231, "properties": { "id": 232, "place_name": "Great Salt Lake", "end_id": 232 }, "geometry": { "type": "Point", "coordinates": [ -112.54653167724609, 41.094516754150391 ] } },
{ "type": "Feature", "id": 232, "properties": { "id": 233, "place_name": "Lago de Nicaragua", "end_id": 233 }, "geometry": { "type": "Point", "coordinates": [ -85.438552856445312, 11.508450508117676 ] } },
{ "type": "Feature", "id": 233, "properties": { "id": 234, "place_name": "Lake Titicaca", "end_id": 234 }, "geometry": { "type": "Point", "coordinates": [ -69.402694702148438, -15.80011558532715 ] } },
{ "type": "Feature", "id": 234, "properties": { "id": 235, "place_name": "Lake Ontario", "end_id": 235 }, "geometry": { "type": "Point", "coordinates": [ -77.776863098144531, 43.654018402099609 ] } },
{ "type": "Feature", "id": 235, "properties": { "id": 236, "place_name": "Lake Erie", "end_id": 236 }, "geometry": { "type": "Point", "coordinates": [ -81.228797912597656, 42.166889190673828 ] } },
{ "type": "Feature", "id": 236, "properties": { "id": 237, "place_name": "Lake Huron", "end_id": 237 }, "geometry": { "type": "Point", "coordinates": [ -82.463203430175781, 44.82244873046875 ] } },
{ "type": "Feature", "id": 237, "properties": { "id": 238, "place_name": "Lake Michigan", "end_id": 238 }, "geometry": { "type": "Point", "coordinates": [ -87.101768493652344, 43.557384490966797 ] } },
{ "type": "Feature", "id": 238, "properties": { "id": 239, "place_name": "Lake Superior", "end_id": 239 }, "geometry": { "type": "Point", "coordinates": [ -87.186111450195313, 47.746150970458984 ] } },
{ "type": "Feature", "id": 239, "properties": { "id": 240, "place_name": "Vanern", "end_id": 240 }, "geometry": { "type": "Point", "coordinates": [ 13.379714965820313, 58.850528717041023 ] } },
{ "type": "Feature", "id": 240, "properties": { "id": 241, "place_name": "Lake Ladoga", "end_id": 241 }, "geometry": { "type": "Point", "coordinates": [ 31.436954498291016, 60.829319000244141 ] } },
{ "type": "Feature", "id": 241, "properties": { "id": 242, "place_name": "Lake Onegh", "end_id": 242 }, "geometry": { "type": "Point", "coordinates": [ 35.463188171386719, 61.730857849121101 ] } },
{ "type": "Feature", "id": 242, "properties": { "id": 243, "place_name": "Lake Chad", "end_id": 243 }, "geometry": { "type": "Point", "coordinates": [ 13.987993240356445, 13.412095069885254 ] } },
{ "type": "Feature", "id": 243, "properties": { "id": 244, "place_name": "Lake Victoria", "end_id": 244 }, "geometry": { "type": "Point", "coordinates": [ 32.892875671386719, -0.950505316257477 ] } },
{ "type": "Feature", "id": 244, "properties": { "id": 245, "place_name": "Lake Rudolf", "end_id": 245 }, "geometry": { "type": "Point", "coordinates": [ 36.026241302490234, 3.667729377746582 ] } },
{ "type": "Feature", "id": 245, "properties": { "id": 246, "place_name": "Lake Nyasa", "end_id": 246 }, "geometry": { "type": "Point", "coordinates": [ 34.481071472167969, -12.08211612701416 ] } },
{ "type": "Feature", "id": 246, "properties": { "id": 247, "place_name": "Lake Tanganyika", "end_id": 247 }, "geometry": { "type": "Point", "coordinates": [ 29.630071640014648, -5.732464313507081 ] } },
{ "type": "Feature", "id": 247, "properties": { "id": 248, "place_name": "Caspian Sea", "end_id": 248 }, "geometry": { "type": "Point", "coordinates": [ 50.295368194580085, 42.497959136962891 ] } },
{ "type": "Feature", "id": 248, "properties": { "id": 249, "place_name": "Aral Sea", "end_id": 249 }, "geometry": { "type": "Point", "coordinates": [ 59.985237121582038, 45.006732940673828 ] } },
{ "type": "Feature", "id": 249, "properties": { "id": 250, "place_name": "Lake Balkhash", "end_id": 250 }, "geometry": { "type": "Point", "coordinates": [ 74.566207885742187, 46.329345703125 ] } },
{ "type": "Feature", "id": 250, "properties": { "id": 251, "place_name": "Lake Baikal", "end_id": 251 }, "geometry": { "type": "Point", "coordinates": [ 107.99427032470703, 53.293731689453125 ] } }
]
}
